NORAD_CAT_ID,OBJECT_NAME,OBJECT_TYPE,EPOCH,MEAN_MOTION,ECCENTRICITY,INCLINATION,RA_OF_ASC_NODE,ARG_OF_PERICENTER,MEAN_ANOMALY,BSTAR,MEAN_MOTION_DOT,MEAN_MOTION_DDOT,TLE_LINE0,TLE_LINE1,TLE_LINE2,SEMIMAJOR_AXIS,PERIOD,APOGEE,PERIGEE,DECAYED
49153.0,STARLINK-3072,PAYLOAD,2022-05-19 14:00:01,15.01342554,0.0003123999999999,69.9997,158.5604,276.6364,287.8008,-0.060006,-0.00719987,0.0,0 STARLINK-3072,1 49153U 21082Z   22139.58335648 -.00719987  00000-0 -60006-1 0  9990,2 49153  69.9997 158.5604 0003124 276.6364 287.8008 15.01342554  1303,6940.892,95.914,564.9259999999998,560.589,0.0
49153.0,STARLINK-3072,PAYLOAD,2022-05-19 22:00:00,15.00831535,0.0003118,69.9999,157.7159,278.0407,287.0115,-0.060799,-0.00719752,0.0,0 STARLINK-3072,1 49153U 21082Z   22139.91667824 -.00719752  00000-0 -60799-1 0  9990,2 49153  69.9999 157.7159 0003118 278.0407 287.0115 15.00831535 38816,6942.468000000003,95.947,566.498,562.168,0.0
49153.0,STARLINK-3072,PAYLOAD,2022-05-20 14:00:01,14.99810557,0.0003082,69.9997,156.0286,276.954,287.8347,-0.062573,-0.00728584,0.0,0 STARLINK-3072,1 49153U 21082Z   22140.58334491 -.00728584  00000-0 -62573-1 0  9991,2 49153  69.9997 156.0286 0003082 276.9540 287.8347 14.99810557  1309,6945.618,96.012,569.624,565.3430000000002,0.0
49153.0,STARLINK-3072,PAYLOAD,2022-05-20 22:00:00,14.99299051,0.000313,69.9998,155.1862,279.9373,283.8008,-0.063369,-0.00728084,0.0,0 STARLINK-3072,1 49153U 21082Z   22140.91667824 -.00728084  00000-0 -63369-1 0  9996,2 49153  69.9998 155.1862 0003130 279.9373 283.8008 14.99299051 38963,6947.198,96.045,571.237,566.888,0.0
49153.0,STARLINK-3072,PAYLOAD,2022-05-21 06:00:00,14.98787616,0.0003312,70.0001,154.3442,289.0046,273.0705,-0.064209,-0.00727985,0.0,0 STARLINK-3072,1 49153U 21082Z   22141.25001157 -.00727985  00000-0 -64209-1 0  9998,2 49153  70.0001 154.3442 0003312 289.0046 273.0705 14.98787616  1308,6948.778,96.078,572.945,568.342,0.0
49153.0,STARLINK-3072,PAYLOAD,2022-05-21 14:00:01,14.98277715,0.0003093,69.9997,153.5029,278.0542,281.8062,-0.065132,-0.00728649,0.0,0 STARLINK-3072,1 49153U 21082Z   22141.58335648 -.00728649  00000-0 -65132-1 0  9993,2 49153  69.9997 153.5029 0003093 278.0542 281.8062 14.98277715  1303,6950.355,96.11,574.369,570.07,0.0
49153.0,STARLINK-3072,PAYLOAD,2022-05-21 22:00:00,14.97766574,0.0003107,69.9998,152.6624,279.1838,277.7253,-0.06602,-0.00728839,0.0,0 STARLINK-3072,1 49153U 21082Z   22141.91667824 -.00728839  00000-0 -66020-1 0  9992,2 49153  69.9998 152.6624 0003107 279.1838 277.7253 14.97766574  1302,6951.936,96.143,575.961,571.641,0.0
49153.0,STARLINK-3072,PAYLOAD,2022-05-22 06:00:00,14.97207561,0.000327,70.0001,151.8227,286.9077,266.5095,-0.055546,-0.00605296,0.0,0 STARLINK-3072,1 49153U 21082Z   22142.25001157 -.00605296  00000-0 -55546-1 0  9993,2 49153  70.0001 151.8227 0003270 286.9077 266.5095 14.97207561 39163,6953.666,96.179,577.805,573.257,0.0
49153.0,STARLINK-3072,PAYLOAD,2022-05-22 14:00:01,14.96716782,0.0003137,69.9997,150.9837,278.3619,270.9327,-0.00024205,-2.861e-05,0.0,0 STARLINK-3072,1 49153U 21082Z   22142.58334491 -.00002861  00000-0 -24205-3 0  9998,2 49153  69.9997 150.9837 0003137 278.3619 270.9327 14.96716782 39212,6955.186,96.211,579.2330000000002,574.869,0.0
49153.0,STARLINK-3072,PAYLOAD,2022-05-22 22:00:01,14.96716618,0.0003143999999999,69.9999,150.1455,278.6004,266.3041,-0.00024867,-2.937e-05,0.0,0 STARLINK-3072,1 49153U 21082Z   22142.91668981 -.00002937  00000-0 -24867-3 0  9997,2 49153  69.9999 150.1455 0003144 278.6004 266.3041 14.96716618  1300,6955.187,96.211,579.238,574.865,0.0
49153.0,STARLINK-3072,PAYLOAD,2022-05-23 06:00:00,14.96762976,0.0003172,69.9997,149.314,281.2533,259.2808,-0.0060649,-0.00068914,0.0,0 STARLINK-3072,1 49153U 21082Z   22143.25001157 -.00068914  00000-0 -60649-2 0  9995,2 49153  69.9997 149.3140 0003172 281.2533 259.2808 14.96762976 39319,6955.043000000002,96.208,579.114,574.702,0.0
49153.0,STARLINK-3072,PAYLOAD,2022-05-23 14:00:01,14.96713938,0.0003294,69.9992,148.4728,283.3982,252.6526,-0.0011744,-0.00013507,0.0,0 STARLINK-3072,1 49153U 21082Z   22143.58334491 -.00013507  00000-0 -11744-2 0  9991,2 49153  69.9992 148.4728 0003294 283.3982 252.6526 14.96713938  1308,6955.195,96.211,579.351,574.769,0.0
49153.0,STARLINK-3072,PAYLOAD,2022-05-23 22:00:01,14.96681415,0.0003251,69.9996,147.6372,277.4865,254.1714,0.0049514,0.00056996,0.0,0 STARLINK-3072,1 49153U 21082Z   22143.91668981  .00056996  00000-0  49514-2 0  9995,2 49153  69.9996 147.6372 0003251 277.4865 254.1714 14.96681415  1305,6955.295999999999,96.213,579.422,574.9,0.0
49153.0,STARLINK-3072,PAYLOAD,2022-05-24 06:00:02,14.96714027,0.0003305,69.9996,146.7988,280.9514,246.241,-0.0014301,-0.00016421,0.0,0 STARLINK-3072,1 49153U 21082Z   22144.25002315 -.00016421  00000-0 -14301-2 0  9993,2 49153  69.9996 146.7988 0003305 280.9514 246.2410 14.96714027 39467,6955.195,96.211,579.3580000000002,574.761,0.0
49153.0,STARLINK-3072,PAYLOAD,2022-05-24 14:00:01,14.96729465,0.0003282,69.9992,145.9604,283.0709,239.5915,-0.0033358,-0.00038079,0.0,0 STARLINK-3072,1 49153U 21082Z   22144.58334491 -.00038079  00000-0 -33358-2 0  9998,2 49153  69.9992 145.9604 0003282 283.0709 239.5915 14.96729465  1302,6955.147,96.21,579.295,574.729,0.0
49153.0,STARLINK-3072,PAYLOAD,2022-05-24 22:00:00,14.96688353,0.0003265,69.9994,145.1221,277.4707,240.7434,0.0046303,0.00053275,0.0,0 STARLINK-3072,1 49153U 21082Z   22144.91667824  .00053275  00000-0  46303-2 0  9991,2 49153  69.9994 145.1221 0003265 277.4707 240.7434 14.96688353 39566,6955.274,96.212,579.41,574.868,0.0
49153.0,STARLINK-3072,PAYLOAD,2022-05-25 14:00:01,14.96736773,0.0003252,69.9989,143.4454,283.399,225.8952,-0.0037981,-0.0004332,0.0,0 STARLINK-3072,1 49153U 21082Z   22145.58334491 -.00043320  00000-0 -37981-2 0  9990,2 49153  69.9989 143.4454 0003252 283.3990 225.8952 14.96736773 39665,6955.124,96.209,579.251,574.727,0.0
49153.0,STARLINK-3072,PAYLOAD,2022-05-25 22:00:00,14.96696371,0.000321,69.999,142.6071,277.7335,227.1193,0.0043372,0.00049883,0.0,0 STARLINK-3072,1 49153U 21082Z   22145.91667824  .00049883  00000-0  43372-2 0  9995,2 49153  69.9990 142.6071 0003210 277.7335 227.1193 14.96696371  1308,6955.249,96.212,579.347,574.882,0.0
49153.0,STARLINK-3072,PAYLOAD,2022-05-26 06:00:00,14.967185699999998,0.0003273,69.999,141.7687,282.2771,218.1263,-0.00043466,-5.064e-05,0.0,0 STARLINK-3072,1 49153U 21082Z   22146.25001157 -.00005064  00000-0 -43466-3 0  9994,2 49153  69.9990 141.7687 0003273 282.2771 218.1263 14.96718570 39760,6955.181,96.21,579.322,574.769,0.0
49153.0,STARLINK-3072,PAYLOAD,2022-05-26 10:11:13,14.96713471,0.0003231,69.9979,141.3293,281.211,78.8685,7.9928e-05,8.23e-06,0.0,0 STARLINK-3072,1 49153U 21082Z   22146.42445644  .00000823  00000-0  79928-4 0  9995,2 49153  69.9979 141.3293 0003231 281.2110  78.8685 14.96713471 40997,6955.196,96.211,579.309,574.814,0.0
49153.0,STARLINK-3072,PAYLOAD,2022-05-26 22:00:00,14.96703207,0.0003161,69.9987,140.0918,277.7305,213.7776,0.0039661,0.00045587,0.0,0 STARLINK-3072,1 49153U 21082Z   22146.91667824  .00045587  00000-0  39661-2 0  9999,2 49153  69.9987 140.0918 0003161 277.7305 213.7776 14.96703207  1303,6955.228,96.211,579.2919999999998,574.895,0.0
49153.0,STARLINK-3072,PAYLOAD,2022-05-27 04:00:00,14.96740476,0.0003237,69.999,139.4629,280.5883,117.58,-0.0028864,-0.00032995,0.0,0 STARLINK-3072,1 49153U 21082Z   22147.16667824 -.00032995  00000-0 -28864-2 0  9991,2 49153  69.9990 139.4629 0003237 280.5883 117.5800 14.96740476 39898,6955.113,96.209,579.229,574.726,0.0
49153.0,STARLINK-3072,PAYLOAD,2022-05-27 14:00:01,14.96748349,0.0003205,69.9984,138.4148,283.0441,199.5697,-0.0043596,-0.0004968,0.0,0 STARLINK-3072,1 49153U 21082Z   22147.58334491 -.00049680  00000-0 -43596-2 0  9996,2 49153  69.9984 138.4148 0003205 283.0441 199.5697 14.96748349  1305,6955.0880000000025,96.209,579.182,574.724,0.0
49153.0,STARLINK-3072,PAYLOAD,2022-05-27 22:00:01,14.96714996,0.0003097,69.9999,137.5707,279.5531,198.6771,3.5676e-05,3.17e-06,0.0,0 STARLINK-3072,1 49153U 21082Z   22147.91668981  .00000317  00000-0  35676-4 0  9991,2 49153  69.9999 137.5707 0003097 279.5531 198.6771 14.96714996 40016,6955.191999999999,96.211,579.211,574.903,0.0
49153.0,STARLINK-3072,PAYLOAD,2022-05-28 06:00:02,14.96728166,0.000324,69.9988,136.7379,281.4846,192.3234,-0.00017909,-2.142e-05,0.0,0 STARLINK-3072,1 49153U 21082Z   22148.25002315 -.00002142  00000-0 -17909-3 0  9990,2 49153  69.9988 136.7379 0003240 281.4846 192.3234 14.96728166 40065,6955.151,96.21,579.269,574.762,0.0
49153.0,STARLINK-3072,PAYLOAD,2022-05-28 14:00:01,14.96759214,0.0003174,69.9984,135.8994,282.2125,187.0912,-0.0080978,-0.00091676,0.0,0 STARLINK-3072,1 49153U 21082Z   22148.58334491 -.00091676  00000-0 -80978-2 0  9994,2 49153  69.9984 135.8994 0003174 282.2125 187.0912 14.96759214  1305,6955.055,96.208,579.127,574.712,0.0
49153.0,STARLINK-3072,PAYLOAD,2022-05-28 22:00:00,14.96694692,0.0003095,69.9988,135.061,276.3864,188.4792,0.0035752,0.00041049,0.0,0 STARLINK-3072,1 49153U 21082Z   22148.91667824  .00041049  00000-0  35752-2 0  9997,2 49153  69.9988 135.0610 0003095 276.3864 188.4792 14.96694692  1301,6955.255,96.212,579.2719999999998,574.967,0.0
49153.0,STARLINK-3072,PAYLOAD,2022-05-29 14:00:01,14.96732848,0.0003149,69.9987,133.3842,281.8631,174.0734,-0.004435,-0.00050511,0.0,0 STARLINK-3072,1 49153U 21082Z   22149.58334491 -.00050511  00000-0 -44350-2 0  9992,2 49153  69.9987 133.3842 0003149 281.8631 174.0734 14.96732848 40262,6955.136,96.21,579.192,574.811,0.0
49153.0,STARLINK-3072,PAYLOAD,2022-05-29 22:00:00,14.96702249,0.0003123,69.9991,132.5459,276.4171,175.0651,0.0029694,0.0003405,0.0,0 STARLINK-3072,1 49153U 21082Z   22149.91667824  .00034050  00000-0  29694-2 0  9990,2 49153  69.9991 132.5459 0003123 276.4171 175.0651 14.96702249  1306,6955.231,96.212,579.268,574.924,0.0
